{"type": "FeatureCollection", "features": [{"type": "Feature", "properties": {"name": "Appalachian Trail", "source": "OpenStreetMap (relation 156553)", "license": "ODbL"}, "geometry": {"type": "LineString", "coordinates": [[-84.19388, 34.62677], [-84.19732, 34.63667], [-84.19222, 34.63811], [-84.1909, 34.64494], [-84.19251, 34.64785], [-84.19866, 34.64681], [-84.19784, 34.65395], [-84.18029, 34.66627], [-84.17008, 34.6673], [-84.1674, 34.66333], [-84.16426, 34.66583], [-84.15084, 34.66281], [-84.12598, 34.66524], [-84.11773, 34.65838], [-84.10334, 34.65331], [-84.08817, 34.65219], [-84.08285, 34.65401], [-84.08196, 34.65865], [-84.07475, 34.65724], [-84.0714, 34.66225], [-84.06244, 34.65984], [-84.06147, 34.65576], [-84.0562, 34.65789], [-84.0522, 34.65399], [-84.03743, 34.6537], [-84.03584, 34.65615], [-84.03206, 34.65214], [-84.02485, 34.66923], [-84.0166, 34.67291], [-84.00528, 34.66998], [-83.99706, 34.67902], [-83.99135, 34.69484], [-83.9881, 34.69378], [-83.98974, 34.6973], [-83.98095, 34.71554], [-83.97239, 34.71887], [-83.97189, 34.72291], [-83.9631, 34.72937], [-83.95398, 34.73163], [-83.94571, 34.741], [-83.93752, 34.74017], [-83.93636, 34.73479], [-83.93095, 34.73815], [-83.92722, 34.73514], [-83.9208, 34.73879], [-83.91387, 34.73408], [-83.91011, 34.73673], [-83.90709, 34.732], [-83.90014, 34.73183], [-83.89408, 34.72586], [-83.88481, 34.72679], [-83.87908, 34.72312], [-83.86924, 34.72716], [-83.8564, 34.72157], [-83.84753, 34.72621], [-83.83956, 34.72499], [-83.837, 34.72897], [-83.8301, 34.73068], [-83.82589, 34.74779], [-83.83003, 34.75899], [-83.83012, 34.77098], [-83.81738, 34.78152], [-83.81046, 34.79417], [-83.80763, 34.79373], [-83.80935, 34.7985], [-83.80485, 34.80157], [-83.81122, 34.80606], [-83.81063, 34.81029], [-83.79625, 34.82294], [-83.77757, 34.82213], [-83.77706, 34.81797], [-83.75458, 34.81259], [-83.74385, 34.80059], [-83.73216, 34.80395], [-83.73047, 34.79815], [-83.72251, 34.79815], [-83.72057, 34.79445], [-83.7112, 34.79184], [-83.69588, 34.79276], [-83.68552, 34.80209], [-83.68181, 34.80075], [-83.66942, 34.80581], [-83.65888, 34.81319], [-83.65249, 34.8229], [-83.65855, 34.82922], [-83.66118, 34.84364], [-83.6544, 34.8784], [-83.64392, 34.89135], [-83.63, 34.89227], [-83.62653, 34.90597], [-83.61745, 34.91336], [-83.6044, 34.91058], [-83.59552, 34.91747], [-83.60233, 34.9374], [-83.59359, 34.94226], [-83.58794, 34.95089], [-83.59713, 34.95944], [-83.59294, 34.96593], [-83.6, 34.99416], [-83.58434, 35.00271], [-83.5829, 35.01277], [-83.58041, 35.0136], [-83.58136, 35.02165], [-83.56156, 35.03702], [-83.56401, 35.04886], [-83.55319, 35.03945], [-83.54825, 35.04525], [-83.54752, 35.03912], [-83.54306, 35.04085], [-83.54408, 35.03727], [-83.543, 35.03917], [-83.53717, 35.03639], [-83.53151, 35.02649], [-83.51963, 35.01841], [-83.52524, 35.00757], [-83.51594, 35.00523], [-83.51195, 35.0074], [-83.50518, 35.00088], [-83.50135, 35.00383], [-83.49381, 34.99925], [-83.48742, 35.00226], [-83.48622, 35.00755], [-83.48191, 35.00361], [-83.47731, 35.02049], [-83.48228, 35.02426], [-83.47005, 35.03539], [-83.47101, 35.04644], [-83.47736, 35.05218], [-83.4784, 35.05965], [-83.48588, 35.06156], [-83.48803, 35.06654], [-83.49566, 35.06644], [-83.49797, 35.07396], [-83.51584, 35.08291], [-83.51729, 35.0872], [-83.52216, 35.08759], [-83.5216, 35.09672], [-83.53402, 35.10392], [-83.53683, 35.11084], [-83.54696, 35.11527], [-83.54482, 35.1166], [-83.54822, 35.12291], [-83.55809, 35.12086], [-83.55957, 35.12436], [-83.55436, 35.13031], [-83.55517, 35.13549], [-83.58722, 35.14696], [-83.5802, 35.15083], [-83.577, 35.15985], [-83.57885, 35.16496], [-83.58474, 35.16519], [-83.58267, 35.1763], [-83.57499, 35.1741], [-83.56063, 35.18026], [-83.56349, 35.18283], [-83.56166, 35.18749], [-83.5642, 35.18813], [-83.56222, 35.19726], [-83.56739, 35.1992], [-83.56841, 35.20403], [-83.56822, 35.21016], [-83.56318, 35.21471], [-83.56738, 35.2192], [-83.56276, 35.21838], [-83.5622, 35.22218], [-83.56869, 35.22904], [-83.55786, 35.23367], [-83.56158, 35.23627], [-83.56043, 35.24431], [-83.56858, 35.25087], [-83.56788, 35.25913], [-83.57123, 35.26713], [-83.57549, 35.27182], [-83.57818, 35.27061], [-83.57903, 35.27939], [-83.58275, 35.28334], [-83.59527, 35.28369], [-83.59699, 35.2871], [-83.59328, 35.29454], [-83.59452, 35.29932], [-83.58561, 35.30937], [-83.58839, 35.31316], [-83.58616, 35.32176], [-83.59256, 35.32562], [-83.59133, 35.33083], [-83.59639, 35.33485], [-83.6002, 35.33323], [-83.602, 35.34018], [-83.61034, 35.34069], [-83.61676, 35.34595], [-83.63451, 35.34091], [-83.64149, 35.34227], [-83.63662, 35.33971], [-83.65454, 35.33757], [-83.66754, 35.33131], [-83.66869, 35.32743], [-83.67823, 35.32795], [-83.68317, 35.3243], [-83.68984, 35.3288], [-83.70692, 35.33089], [-83.70359, 35.33555], [-83.70954, 35.33923], [-83.71333, 35.35266], [-83.72046, 35.3535], [-83.71713, 35.35731], [-83.71597, 35.37139], [-83.72215, 35.37428], [-83.7396, 35.37057], [-83.75387, 35.37612], [-83.75449, 35.38319], [-83.76098, 35.38692], [-83.75969, 35.38936], [-83.76587, 35.39554], [-83.76147, 35.40122], [-83.76325, 35.40534], [-83.76899, 35.40622], [-83.76475, 35.40991], [-83.77398, 35.41407], [-83.77114, 35.41634], [-83.77992, 35.41735], [-83.7782, 35.42065], [-83.79135, 35.42368], [-83.803, 35.42213], [-83.79659, 35.43179], [-83.79908, 35.43211], [-83.79513, 35.4341], [-83.79997, 35.43571], [-83.79343, 35.43914], [-83.7959, 35.4419], [-83.78807, 35.44592], [-83.81046, 35.45453], [-83.80881, 35.4574], [-83.81362, 35.46624], [-83.80738, 35.4806], [-83.80975, 35.48445], [-83.81862, 35.48415], [-83.81528, 35.48677], [-83.80998, 35.51299], [-83.82151, 35.52556], [-83.81217, 35.53075], [-83.80837, 35.53771], [-83.80185, 35.54008], [-83.79991, 35.53634], [-83.80022, 35.54182], [-83.77553, 35.55343], [-83.77195, 35.55747], [-83.77554, 35.56223], [-83.75355, 35.56393], [-83.74813, 35.55785], [-83.73737, 35.56502], [-83.72264, 35.56214], [-83.7055, 35.56926], [-83.69438, 35.57043], [-83.68837, 35.56828], [-83.6549, 35.56976], [-83.64391, 35.56596], [-83.62716, 35.56904], [-83.60842, 35.57998], [-83.6014, 35.57863], [-83.59929, 35.57375], [-83.59583, 35.57489], [-83.58414, 35.56278], [-83.56514, 35.5662], [-83.55087, 35.56343], [-83.52133, 35.56571], [-83.51659, 35.56236], [-83.49771, 35.56292], [-83.48513, 35.56858], [-83.47881, 35.58331], [-83.47239, 35.58664], [-83.47422, 35.59068], [-83.46325, 35.59221], [-83.44752, 35.61091], [-83.42078, 35.61077], [-83.41226, 35.61806], [-83.39565, 35.62294], [-83.38628, 35.63004], [-83.38606, 35.63359], [-83.36806, 35.63833], [-83.36177, 35.64315], [-83.35584, 35.65169], [-83.35794, 35.65612], [-83.3513, 35.66139], [-83.3449, 35.66137], [-83.34133, 35.66637], [-83.339, 35.66353], [-83.32107, 35.66243], [-83.30962, 35.65282], [-83.29773, 35.65686], [-83.29111, 35.66889], [-83.29321, 35.67358], [-83.28376, 35.67452], [-83.26935, 35.68222], [-83.26824, 35.68843], [-83.25912, 35.69012], [-83.25548, 35.70143], [-83.26371, 35.70513], [-83.25308, 35.71092], [-83.25719, 35.71507], [-83.25408, 35.7181], [-83.23861, 35.72676], [-83.21663, 35.72728], [-83.21416, 35.72326], [-83.18893, 35.72969], [-83.18321, 35.72749], [-83.17931, 35.74556], [-83.1701, 35.74734], [-83.1646, 35.75879], [-83.15761, 35.7621], [-83.15882, 35.76452], [-83.14505, 35.76218], [-83.14122, 35.76567], [-83.13495, 35.76334], [-83.12792, 35.7711], [-83.11981, 35.76842], [-83.1098, 35.77085], [-83.11123, 35.77958], [-83.11532, 35.78167], [-83.11229, 35.78544], [-83.09305, 35.77845], [-83.08744, 35.78322], [-83.07487, 35.78424], [-83.07559, 35.78937], [-83.06791, 35.78616], [-83.05263, 35.78946], [-83.04364, 35.78324], [-83.03372, 35.78706], [-83.03008, 35.78554], [-83.0305, 35.78255], [-83.02514, 35.78383], [-83.02113, 35.77987], [-83.01573, 35.78182], [-83.00604, 35.77857], [-83.00503, 35.77464], [-82.99936, 35.77223], [-82.99285, 35.77286], [-82.97042, 35.78914], [-82.95785, 35.7924], [-82.9555, 35.79896], [-82.94685, 35.79927], [-82.94524, 35.80132], [-82.95279, 35.80525], [-82.94787, 35.80771], [-82.94904, 35.81055], [-82.94327, 35.81328], [-82.9425, 35.81747], [-82.93658, 35.81932], [-82.94027, 35.82198], [-82.93535, 35.82718], [-82.93881, 35.83698], [-82.93273, 35.8348], [-82.92382, 35.8406], [-82.92025, 35.83699], [-82.90672, 35.84111], [-82.89843, 35.85014], [-82.90169, 35.85101], [-82.89578, 35.85379], [-82.89083, 35.84934], [-82.87722, 35.85191], [-82.86895, 35.85697], [-82.87232, 35.86173], [-82.87173, 35.8673], [-82.87649, 35.86759], [-82.87463, 35.8714], [-82.8608, 35.87461], [-82.8625, 35.87685], [-82.85919, 35.88211], [-82.84145, 35.89202], [-82.83223, 35.88703], [-82.83084, 35.89117], [-82.82188, 35.89358], [-82.81959, 35.88653], [-82.81926, 35.89096], [-82.81048, 35.88426], [-82.79885, 35.88504], [-82.78999, 35.89198], [-82.78818, 35.89548], [-82.79235, 35.90017], [-82.78991, 35.90478], [-82.79145, 35.91413], [-82.79806, 35.91361], [-82.79776, 35.91866], [-82.80344, 35.92279], [-82.80071, 35.93147], [-82.80444, 35.93226], [-82.80628, 35.93715], [-82.78855, 35.95175], [-82.78507, 35.96343], [-82.77679, 35.96971], [-82.77677, 35.97357], [-82.78712, 35.98028], [-82.78524, 35.98409], [-82.7884, 35.98785], [-82.78098, 35.99102], [-82.77802, 35.99722], [-82.77104, 36.00156], [-82.75446, 36.00417], [-82.73914, 36.01476], [-82.72067, 36.02067], [-82.71428, 36.0184], [-82.71612, 36.0212], [-82.71215, 36.02421], [-82.71301, 36.02695], [-82.70439, 36.02823], [-82.70097, 36.03407], [-82.68981, 36.03806], [-82.6798, 36.04829], [-82.65116, 36.05693], [-82.63724, 36.06607], [-82.63159, 36.06645], [-82.61751, 36.05633], [-82.61638, 36.04887], [-82.60359, 36.04595], [-82.60658, 36.04497], [-82.60706, 36.04039], [-82.60047, 36.03955], [-82.60124, 36.03644], [-82.59566, 36.03458], [-82.60403, 36.01848], [-82.61172, 36.01505], [-82.60444, 35.99986], [-82.60976, 35.99354], [-82.60094, 35.98865], [-82.60715, 35.98416], [-82.61305, 35.96518], [-82.60533, 35.96671], [-82.60042, 35.96321], [-82.5922, 35.96629], [-82.58052, 35.96534], [-82.57654, 35.95903], [-82.55687, 35.95196], [-82.55282, 35.96036], [-82.54119, 35.96674], [-82.54193, 35.96894], [-82.53102, 35.97217], [-82.52539, 35.97028], [-82.51864, 35.97626], [-82.50565, 35.97828], [-82.5041, 35.9828], [-82.49597, 35.98549], [-82.49359, 35.99063], [-82.49074, 35.98944], [-82.48395, 35.99388], [-82.48164, 35.99918], [-82.47382, 36.00017], [-82.45602, 36.01176], [-82.44969, 36.01008], [-82.4481, 36.0143], [-82.4302, 36.02135], [-82.42824, 36.02838], [-82.42343, 36.02682], [-82.41827, 36.04106], [-82.43567, 36.04764], [-82.43346, 36.0675], [-82.44251, 36.07189], [-82.44882, 36.07053], [-82.4499, 36.07749], [-82.4552, 36.07709], [-82.45985, 36.0831], [-82.45759, 36.08993], [-82.44925, 36.09402], [-82.45058, 36.10599], [-82.44098, 36.09967], [-82.43112, 36.10033], [-82.42011, 36.10827], [-82.41036, 36.10349], [-82.41181, 36.10519], [-82.39589, 36.10552], [-82.3926, 36.10244], [-82.39007, 36.10557], [-82.37929, 36.10756], [-82.37593, 36.11315], [-82.373, 36.11374], [-82.37179, 36.10697], [-82.35014, 36.11725], [-82.3497, 36.11408], [-82.3364, 36.11466], [-82.3196, 36.11868], [-82.30319, 36.13145], [-82.28683, 36.13441], [-82.28655, 36.13777], [-82.28108, 36.12942], [-82.28051, 36.1314], [-82.26459, 36.12791], [-82.25728, 36.13485], [-82.24553, 36.13228], [-82.22633, 36.14778], [-82.22155, 36.15686], [-82.2121, 36.159], [-82.2016, 36.15664], [-82.19347, 36.14932], [-82.18722, 36.15106], [-82.18364, 36.14458], [-82.17667, 36.14263], [-82.17296, 36.14646], [-82.15314, 36.14754], [-82.14313, 36.1527], [-82.14578, 36.14064], [-82.14003, 36.13629], [-82.14165, 36.13168], [-82.14026, 36.13005], [-82.1388, 36.13283], [-82.13788, 36.12706], [-82.13628, 36.12844], [-82.13804, 36.11973], [-82.1283, 36.10425], [-82.11551, 36.10402], [-82.11535, 36.10661], [-82.11258, 36.10482], [-82.10747, 36.10845], [-82.10022, 36.10491], [-82.08388, 36.10534], [-82.06486, 36.11275], [-82.06036, 36.11049], [-82.06158, 36.11675], [-82.05505, 36.12537], [-82.04465, 36.12554], [-82.03279, 36.12106], [-82.02869, 36.12533], [-82.02657, 36.12402], [-82.02436, 36.13261], [-82.01256, 36.14063], [-82.00184, 36.13746], [-82.00038, 36.14053], [-82.00791, 36.14078], [-82.01198, 36.14589], [-82.01151, 36.15214], [-82.01687, 36.15596], [-82.01003, 36.16802], [-82.01263, 36.18013], [-82.00905, 36.18348], [-82.01334, 36.19031], [-82.00413, 36.19252], [-81.99672, 36.20614], [-81.99109, 36.20783], [-81.97545, 36.20342], [-81.98028, 36.2088], [-81.9742, 36.21127], [-81.97682, 36.2189], [-81.99259, 36.22361], [-81.9994, 36.21932], [-82.00608, 36.22378], [-82.01328, 36.22364], [-82.02092, 36.2196], [-82.03199, 36.22129], [-82.03766, 36.21729], [-82.04061, 36.22286], [-82.04725, 36.22353], [-82.06116, 36.21553], [-82.06236, 36.21839], [-82.07638, 36.21711], [-82.11403, 36.22799], [-82.11133, 36.22869], [-82.12322, 36.24188], [-82.12113, 36.25527], [-82.12393, 36.25407], [-82.12617, 36.26039], [-82.12399, 36.26639], [-82.13448, 36.2723], [-82.13933, 36.27893], [-82.13816, 36.28175], [-82.1433, 36.28145], [-82.13511, 36.28554], [-82.12466, 36.28285], [-82.12323, 36.27938], [-82.11828, 36.28047], [-82.11968, 36.29531], [-82.12225, 36.29326], [-82.12829, 36.29896], [-82.1279, 36.30211], [-82.13155, 36.30153], [-82.1273, 36.30732], [-82.13037, 36.31371], [-82.12378, 36.31653], [-82.12391, 36.32254], [-82.11591, 36.32586], [-82.11646, 36.32807], [-82.09823, 36.33432], [-82.0779, 36.34868], [-82.03667, 36.38529], [-82.02181, 36.40386], [-82.00636, 36.41639], [-82.00392, 36.42445], [-81.99714, 36.426], [-81.98996, 36.438], [-81.98265, 36.44174], [-81.96968, 36.45925], [-81.95569, 36.46765], [-81.95437, 36.47357], [-81.96064, 36.48155], [-81.97971, 36.49736], [-81.98842, 36.50056], [-81.98516, 36.50348], [-81.9856, 36.50983], [-81.97516, 36.51482], [-81.96438, 36.53237], [-81.94839, 36.53799], [-81.93175, 36.55224], [-81.93254, 36.56231], [-81.92991, 36.56655], [-81.90324, 36.58183], [-81.89778, 36.57996], [-81.87935, 36.58383], [-81.87502, 36.58783], [-81.87601, 36.59348], [-81.87052, 36.60249], [-81.86124, 36.606], [-81.85038, 36.60313], [-81.83093, 36.60775], [-81.82432, 36.61508], [-81.80484, 36.62052], [-81.80061, 36.62704], [-81.79553, 36.62738], [-81.79616, 36.63141], [-81.79138, 36.6315], [-81.79195, 36.63548], [-81.77265, 36.62772], [-81.77195, 36.63331], [-81.77565, 36.63394], [-81.76722, 36.63561], [-81.7574, 36.64336], [-81.74271, 36.64473], [-81.74022, 36.6478], [-81.7359, 36.64595], [-81.7377, 36.64148], [-81.73186, 36.63834], [-81.73074, 36.63378], [-81.71732, 36.6302], [-81.71375, 36.63305], [-81.71636, 36.63513], [-81.69891, 36.64485], [-81.69164, 36.6526], [-81.68651, 36.65094], [-81.68549, 36.65446], [-81.67818, 36.65436], [-81.67704, 36.64747], [-81.67382, 36.65037], [-81.67221, 36.64687], [-81.66269, 36.64976], [-81.6646, 36.64759], [-81.66198, 36.64319], [-81.65139, 36.64662], [-81.64965, 36.63941], [-81.64422, 36.63545], [-81.64392, 36.63863], [-81.64095, 36.63707], [-81.63476, 36.64072], [-81.62876, 36.63245], [-81.61748, 36.6319], [-81.62074, 36.63439], [-81.61458, 36.63585], [-81.60236, 36.63169], [-81.59951, 36.64091], [-81.59385, 36.64256], [-81.58757, 36.63869], [-81.58438, 36.64641], [-81.57942, 36.64784], [-81.57482, 36.65454], [-81.55943, 36.65967], [-81.55478, 36.65947], [-81.55248, 36.65354], [-81.5445, 36.65078], [-81.53771, 36.65814], [-81.52916, 36.65396], [-81.52232, 36.65799], [-81.5169, 36.65306], [-81.51603, 36.64148], [-81.51213, 36.63833], [-81.50004, 36.64304], [-81.50658, 36.64427], [-81.49829, 36.65561], [-81.48863, 36.65011], [-81.47975, 36.65193], [-81.47972, 36.66095], [-81.49268, 36.67828], [-81.51533, 36.6775], [-81.51171, 36.67955], [-81.5099, 36.68892], [-81.50591, 36.6901], [-81.51022, 36.69366], [-81.50556, 36.69854], [-81.51853, 36.70038], [-81.52279, 36.7047], [-81.51561, 36.70672], [-81.51809, 36.71029], [-81.5078, 36.71561], [-81.51479, 36.71737], [-81.51194, 36.71884], [-81.48775, 36.71635], [-81.4828, 36.72005], [-81.47396, 36.71423], [-81.47374, 36.7173], [-81.47016, 36.71598], [-81.45857, 36.72387], [-81.46362, 36.72826], [-81.47743, 36.73028], [-81.47078, 36.73567], [-81.47365, 36.73552], [-81.47225, 36.74027], [-81.47729, 36.74145], [-81.47673, 36.74535], [-81.48207, 36.74934], [-81.4869, 36.74888], [-81.48694, 36.75166], [-81.49285, 36.75367], [-81.49088, 36.75668], [-81.49568, 36.75677], [-81.49228, 36.76617], [-81.48395, 36.77174], [-81.48675, 36.77345], [-81.49444, 36.76911], [-81.49584, 36.77136], [-81.46756, 36.79002], [-81.42761, 36.80616], [-81.42118, 36.81161], [-81.37402, 36.82336], [-81.37035, 36.83671], [-81.37305, 36.8389], [-81.35771, 36.84099], [-81.35366, 36.84633], [-81.35951, 36.84604], [-81.36507, 36.85225], [-81.35608, 36.86653], [-81.35656, 36.87281], [-81.36176, 36.88342], [-81.37304, 36.8853], [-81.36668, 36.8961], [-81.37252, 36.89949], [-81.37697, 36.91605], [-81.35979, 36.92408], [-81.36526, 36.93448], [-81.36089, 36.94132], [-81.36475, 36.94469], [-81.36208, 36.94781], [-81.37075, 36.95638], [-81.37859, 36.95142], [-81.38305, 36.95379], [-81.38686, 36.95143], [-81.39464, 36.95766], [-81.39394, 36.97111], [-81.40683, 36.98169], [-81.41024, 36.98861], [-81.4077, 36.98959], [-81.40943, 36.99303], [-81.40274, 36.99603], [-81.40435, 37.00081], [-81.39715, 37.00392], [-81.42033, 37.00584], [-81.41698, 37.00904], [-81.41983, 37.01503], [-81.43107, 37.01809], [-81.43024, 37.02127], [-81.42505, 37.0226], [-81.42667, 37.02466], [-81.42278, 37.03134], [-81.42445, 37.03555], [-81.42853, 37.03596], [-81.42369, 37.03908], [-81.43169, 37.04359], [-81.39916, 37.05768], [-81.37721, 37.05431], [-81.34862, 37.06085], [-81.32653, 37.06744], [-81.2893, 37.08481], [-81.26981, 37.08734], [-81.26556, 37.09081], [-81.24661, 37.09311], [-81.24144, 37.08491], [-81.21954, 37.10271], [-81.21022, 37.10645], [-81.20385, 37.10522], [-81.20292, 37.10228], [-81.19671, 37.10446], [-81.19542, 37.10934], [-81.18522, 37.11291], [-81.18262, 37.11887], [-81.17607, 37.11827], [-81.16083, 37.13141], [-81.14397, 37.13416], [-81.13727, 37.13852], [-81.11436, 37.14037], [-81.11501, 37.13724], [-81.1044, 37.13402], [-81.09381, 37.13697], [-81.08645, 37.12877], [-81.07609, 37.12667], [-81.049, 37.13286], [-81.0187, 37.14761], [-81.00804, 37.14608], [-81.00845, 37.15037], [-80.99729, 37.15947], [-80.98137, 37.16016], [-80.97577, 37.15316], [-80.95623, 37.15706], [-80.95631, 37.15489], [-80.95374, 37.15612], [-80.95583, 37.1535], [-80.92604, 37.1597], [-80.90783, 37.16947], [-80.90214, 37.16636], [-80.90319, 37.1699], [-80.89944, 37.17253], [-80.90356, 37.17591], [-80.89752, 37.17974], [-80.89789, 37.18518], [-80.89085, 37.18868], [-80.88932, 37.19373], [-80.88451, 37.19366], [-80.88403, 37.19815], [-80.85937, 37.20727], [-80.85436, 37.21498], [-80.84672, 37.21952], [-80.82246, 37.22433], [-80.80453, 37.23474], [-80.80513, 37.23836], [-80.81653, 37.24192], [-80.85106, 37.24615], [-80.86457, 37.24146], [-80.86596, 37.24777], [-80.85779, 37.25642], [-80.83622, 37.26171], [-80.83833, 37.27046], [-80.8027, 37.28442], [-80.80102, 37.28843], [-80.78639, 37.29202], [-80.75695, 37.3098], [-80.75472, 37.31333], [-80.75742, 37.32035], [-80.75139, 37.3224], [-80.75036, 37.32798], [-80.75916, 37.33281], [-80.75525, 37.33434], [-80.75952, 37.34188], [-80.75335, 37.34695], [-80.74603, 37.34721], [-80.74696, 37.35325], [-80.7579, 37.35823], [-80.74964, 37.36174], [-80.75188, 37.36275], [-80.74817, 37.36634], [-80.75019, 37.36754], [-80.74428, 37.37305], [-80.76063, 37.37481], [-80.71652, 37.38914], [-80.64576, 37.42229], [-80.63676, 37.43059], [-80.62495, 37.4336], [-80.62148, 37.43778], [-80.61713, 37.43796], [-80.61173, 37.43208], [-80.61468, 37.43025], [-80.60517, 37.41909], [-80.60312, 37.42306], [-80.58452, 37.41459], [-80.58314, 37.40318], [-80.57506, 37.39825], [-80.56106, 37.40407], [-80.54684, 37.4051], [-80.5356, 37.41086], [-80.49159, 37.41701], [-80.49381, 37.40872], [-80.4883, 37.40283], [-80.48542, 37.40537], [-80.48299, 37.40149], [-80.48258, 37.40349], [-80.47269, 37.40004], [-80.47426, 37.39255], [-80.46552, 37.38177], [-80.45947, 37.37703], [-80.45191, 37.37784], [-80.44634, 37.37267], [-80.43996, 37.37455], [-80.44431, 37.36277], [-80.4405, 37.35603], [-80.42889, 37.35481], [-80.42114, 37.36152], [-80.41153, 37.35951], [-80.40744, 37.36158], [-80.39739, 37.35938], [-80.39529, 37.35443], [-80.37538, 37.35191], [-80.36724, 37.34571], [-80.36987, 37.34269], [-80.34306, 37.35343], [-80.32763, 37.36699], [-80.29981, 37.38433], [-80.27456, 37.39286], [-80.26826, 37.38662], [-80.26026, 37.38702], [-80.25935, 37.38084], [-80.24449, 37.37951], [-80.24294, 37.37601], [-80.24869, 37.37581], [-80.24521, 37.36282], [-80.2398, 37.35818], [-80.20231, 37.37392], [-80.19815, 37.38805], [-80.20089, 37.39191], [-80.18647, 37.38876], [-80.184, 37.38415], [-80.18105, 37.38547], [-80.18256, 37.38912], [-80.17428, 37.39143], [-80.16679, 37.38917], [-80.16429, 37.38358], [-80.17292, 37.36104], [-80.16917, 37.36618], [-80.16506, 37.36554], [-80.15376, 37.37379], [-80.14664, 37.37073], [-80.14719, 37.36646], [-80.14121, 37.36363], [-80.14296, 37.35754], [-80.13219, 37.3562], [-80.1072, 37.37437], [-80.07967, 37.38467], [-80.05306, 37.38747], [-80.04015, 37.39325], [-80.0264, 37.39076], [-80.01291, 37.39466], [-80.00181, 37.40501], [-79.99603, 37.41554], [-79.99558, 37.42923], [-79.99915, 37.43755], [-79.99691, 37.4366], [-79.99779, 37.43972], [-79.99522, 37.44019], [-79.98398, 37.43271], [-79.97595, 37.43455], [-79.96588, 37.43], [-79.95534, 37.42101], [-79.95514, 37.41518], [-79.95077, 37.41172], [-79.9402, 37.41522], [-79.93012, 37.39842], [-79.93507, 37.38582], [-79.9246, 37.38144], [-79.92076, 37.389], [-79.90205, 37.3951], [-79.89599, 37.40474], [-79.88852, 37.40394], [-79.88544, 37.39866], [-79.87654, 37.39687], [-79.86644, 37.40111], [-79.86207, 37.39836], [-79.86334, 37.39513], [-79.82199, 37.40944], [-79.81928, 37.41683], [-79.81532, 37.41793], [-79.8033, 37.41703], [-79.79036, 37.42393], [-79.78856, 37.41977], [-79.77984, 37.41826], [-79.76542, 37.42562], [-79.75804, 37.42449], [-79.72707, 37.44459], [-79.72482, 37.44891], [-79.71333, 37.45378], [-79.69082, 37.47611], [-79.67887, 37.48097], [-79.67289, 37.48733], [-79.66873, 37.48814], [-79.66995, 37.48552], [-79.66641, 37.48621], [-79.66566, 37.48251], [-79.65495, 37.48851], [-79.64874, 37.49691], [-79.65547, 37.50197], [-79.6526, 37.50989], [-79.63373, 37.53043], [-79.63392, 37.52681], [-79.62551, 37.53164], [-79.62208, 37.53004], [-79.62344, 37.5273], [-79.61815, 37.52694], [-79.60338, 37.53398], [-79.59854, 37.5319], [-79.5907, 37.53569], [-79.58518, 37.5339], [-79.58291, 37.52507], [-79.5731, 37.52543], [-79.57048, 37.51984], [-79.55956, 37.51758], [-79.56076, 37.51554], [-79.55483, 37.51202], [-79.55535, 37.49858], [-79.54622, 37.49439], [-79.53865, 37.49867], [-79.5357, 37.50951], [-79.51953, 37.50879], [-79.51574, 37.51587], [-79.50659, 37.52035], [-79.50464, 37.5276], [-79.49991, 37.52782], [-79.49473, 37.53912], [-79.47898, 37.54831], [-79.4723, 37.549], [-79.46773, 37.55609], [-79.46619, 37.55419], [-79.45849, 37.55661], [-79.45732, 37.56041], [-79.44067, 37.56356], [-79.43927, 37.56829], [-79.4419, 37.5699], [-79.43689, 37.56912], [-79.4372, 37.57613], [-79.44222, 37.57451], [-79.45022, 37.57853], [-79.44888, 37.58583], [-79.4555, 37.58583], [-79.4511, 37.5912], [-79.43346, 37.59257], [-79.40126, 37.60403], [-79.39596, 37.59644], [-79.38969, 37.59432], [-79.39215, 37.60223], [-79.38616, 37.60519], [-79.39453, 37.61281], [-79.39569, 37.61976], [-79.40319, 37.62559], [-79.37646, 37.64614], [-79.36993, 37.64495], [-79.35878, 37.65606], [-79.34829, 37.65714], [-79.34023, 37.67506], [-79.33444, 37.67373], [-79.32653, 37.6774], [-79.30437, 37.66956], [-79.29148, 37.67673], [-79.28392, 37.67453], [-79.28128, 37.66648], [-79.27481, 37.66873], [-79.27626, 37.67481], [-79.27156, 37.68233], [-79.27461, 37.6837], [-79.27113, 37.68542], [-79.27274, 37.69236], [-79.26755, 37.70477], [-79.2687, 37.71076], [-79.26106, 37.72042], [-79.24641, 37.72357], [-79.24784, 37.72696], [-79.23995, 37.72702], [-79.22978, 37.7338], [-79.22773, 37.73974], [-79.22233, 37.74007], [-79.2119, 37.75091], [-79.20552, 37.75077], [-79.19258, 37.75712], [-79.19654, 37.76263], [-79.18711, 37.76681], [-79.18137, 37.78185], [-79.17739, 37.7844], [-79.17911, 37.7862], [-79.17191, 37.78868], [-79.17566, 37.79507], [-79.15706, 37.80386], [-79.16298, 37.80676], [-79.1532, 37.81175], [-79.16029, 37.81237], [-79.15501, 37.82195], [-79.14626, 37.82104], [-79.14057, 37.82623], [-79.13777, 37.82342], [-79.1323, 37.82858], [-79.12145, 37.82785], [-79.1136, 37.83225], [-79.09394, 37.82696], [-79.08832, 37.82195], [-79.07949, 37.82561], [-79.07355, 37.81869], [-79.0597, 37.81914], [-79.03632, 37.82707], [-79.03523, 37.82973], [-79.03788, 37.83033], [-79.0197, 37.83904], [-79.0138, 37.85588], [-79.0001, 37.85552], [-78.99676, 37.84388], [-78.98344, 37.85719], [-78.98675, 37.86399], [-78.99625, 37.86578], [-78.99317, 37.86693], [-78.99146, 37.87874], [-78.99298, 37.8881], [-78.99537, 37.88812], [-78.9722, 37.91486], [-78.96618, 37.92693], [-78.94233, 37.9457], [-78.93145, 37.93918], [-78.91835, 37.94515], [-78.90982, 37.94415], [-78.89917, 37.94813], [-78.90301, 37.95766], [-78.89875, 37.95757], [-78.89814, 37.96086], [-78.89453, 37.95847], [-78.89347, 37.96168], [-78.8877, 37.9632], [-78.89488, 37.96753], [-78.88141, 37.98083], [-78.8849, 37.98304], [-78.87849, 37.98651], [-78.88129, 37.98656], [-78.87835, 37.98986], [-78.88124, 37.99549], [-78.87269, 38.01185], [-78.87413, 38.01448], [-78.85699, 38.02661], [-78.85891, 38.03421], [-78.82299, 38.05991], [-78.8114, 38.06125], [-78.79459, 38.06902], [-78.7927, 38.07453], [-78.7974, 38.07761], [-78.77946, 38.08269], [-78.78377, 38.09031], [-78.77824, 38.09684], [-78.78052, 38.10113], [-78.77828, 38.1065], [-78.78139, 38.1077], [-78.78188, 38.11323], [-78.78707, 38.11361], [-78.78572, 38.11983], [-78.78843, 38.12599], [-78.77838, 38.13222], [-78.77905, 38.13978], [-78.77511, 38.14134], [-78.77215, 38.15801], [-78.77453, 38.16151], [-78.77136, 38.1657], [-78.7729, 38.16802], [-78.76845, 38.17117], [-78.771, 38.17708], [-78.76453, 38.17787], [-78.75701, 38.18706], [-78.75068, 38.19858], [-78.75154, 38.20407], [-78.74576, 38.21397], [-78.739, 38.21867], [-78.74047, 38.22025], [-78.7104, 38.23769], [-78.7116, 38.24206], [-78.70505, 38.24623], [-78.69716, 38.2453], [-78.68271, 38.25393], [-78.67635, 38.25326], [-78.67197, 38.24311], [-78.66618, 38.24503], [-78.6647, 38.25157], [-78.65469, 38.25755], [-78.65583, 38.26029], [-78.64809, 38.26295], [-78.65851, 38.26773], [-78.65887, 38.27264], [-78.66151, 38.27186], [-78.66411, 38.2768], [-78.65087, 38.29588], [-78.64323, 38.28995], [-78.63225, 38.29105], [-78.63375, 38.29489], [-78.63072, 38.30072], [-78.61493, 38.30171], [-78.61305, 38.30265], [-78.61617, 38.30412], [-78.60354, 38.30667], [-78.60102, 38.31532], [-78.59522, 38.31836], [-78.59548, 38.32127], [-78.59347, 38.31957], [-78.5897, 38.32592], [-78.58265, 38.32238], [-78.57638, 38.32888], [-78.56889, 38.32705], [-78.55317, 38.33363], [-78.5524, 38.33753], [-78.54672, 38.33736], [-78.54604, 38.34177], [-78.55263, 38.34292], [-78.55507, 38.34744], [-78.54512, 38.35636], [-78.5462, 38.36006], [-78.53879, 38.36617], [-78.52857, 38.36438], [-78.52311, 38.37839], [-78.51541, 38.38054], [-78.51366, 38.38623], [-78.50875, 38.3845], [-78.50181, 38.39899], [-78.4973, 38.40388], [-78.49028, 38.40551], [-78.48303, 38.42934], [-78.47725, 38.43445], [-78.47515, 38.44244], [-78.46787, 38.44803], [-78.4642, 38.44661], [-78.46582, 38.45123], [-78.45635, 38.46433], [-78.45643, 38.47169], [-78.43966, 38.49721], [-78.44553, 38.49873], [-78.44439, 38.50661], [-78.44931, 38.5158], [-78.44335, 38.51952], [-78.44269, 38.52969], [-78.43866, 38.53315], [-78.43282, 38.52913], [-78.43308, 38.53165], [-78.42099, 38.53451], [-78.41728, 38.54802], [-78.40992, 38.54916], [-78.40869, 38.5525], [-78.3868, 38.55709], [-78.38381, 38.56231], [-78.38559, 38.57002], [-78.38316, 38.5787], [-78.38699, 38.58292], [-78.38467, 38.58679], [-78.37023, 38.59533], [-78.36801, 38.60321], [-78.3656, 38.60237], [-78.36636, 38.60843], [-78.3601, 38.61522], [-78.34921, 38.61583], [-78.34551, 38.62339], [-78.33865, 38.62788], [-78.33133, 38.62498], [-78.32635, 38.6286], [-78.31998, 38.64655], [-78.31437, 38.64928], [-78.31375, 38.65502], [-78.32356, 38.66087], [-78.31949, 38.66591], [-78.32411, 38.67309], [-78.31408, 38.68259], [-78.31685, 38.69343], [-78.32823, 38.69909], [-78.33244, 38.70616], [-78.32179, 38.72683], [-78.31921, 38.73935], [-78.32108, 38.74458], [-78.30398, 38.73829], [-78.27975, 38.76233], [-78.24935, 38.75869], [-78.23882, 38.76234], [-78.23329, 38.76821], [-78.2261, 38.76672], [-78.21748, 38.77354], [-78.20108, 38.77633], [-78.188, 38.78865], [-78.18379, 38.79692], [-78.17734, 38.79979], [-78.18235, 38.80555], [-78.17893, 38.80905], [-78.17987, 38.81387], [-78.17709, 38.81557], [-78.17914, 38.81666], [-78.16977, 38.82084], [-78.16839, 38.83044], [-78.15885, 38.84541], [-78.16501, 38.84675], [-78.16226, 38.84997], [-78.16697, 38.85669], [-78.15055, 38.87815], [-78.13426, 38.8771], [-78.1116, 38.88221], [-78.1029, 38.87992], [-78.08932, 38.88958], [-78.08292, 38.88842], [-78.07542, 38.89205], [-78.07455, 38.89659], [-78.0553, 38.90244], [-78.04896, 38.91976], [-78.0386, 38.92291], [-78.03105, 38.93287], [-78.03585, 38.94207], [-78.01884, 38.95505], [-78.01614, 38.96379], [-77.99994, 38.96896], [-77.99723, 38.97553], [-77.99836, 38.98554], [-77.99003, 38.99663], [-77.98069, 39.00258], [-77.97059, 39.0174], [-77.96319, 39.0171], [-77.96411, 39.02688], [-77.94488, 39.04016], [-77.94718, 39.04485], [-77.94222, 39.04661], [-77.94126, 39.05392], [-77.92577, 39.0593], [-77.91649, 39.06906], [-77.91729, 39.0719], [-77.90154, 39.07045], [-77.89953, 39.07744], [-77.90178, 39.08017], [-77.89885, 39.08447], [-77.87939, 39.09458], [-77.87432, 39.10426], [-77.86086, 39.1128], [-77.85695, 39.11055], [-77.85164, 39.11381], [-77.85189, 39.12966], [-77.8402, 39.1403], [-77.83383, 39.1393], [-77.83103, 39.14526], [-77.82229, 39.14784], [-77.80529, 39.17422], [-77.79616, 39.1951], [-77.79708, 39.20021], [-77.78601, 39.22155], [-77.76994, 39.23851], [-77.76731, 39.24856], [-77.77005, 39.25561], [-77.7622, 39.26114], [-77.75241, 39.27502], [-77.75003, 39.29005], [-77.7347, 39.315], [-77.74119, 39.31333], [-77.74246, 39.31843], [-77.73925, 39.31896], [-77.74453, 39.32186], [-77.70642, 39.32569], [-77.69097, 39.32402], [-77.68141, 39.32924], [-77.6853, 39.33145], [-77.67633, 39.33336], [-77.67388, 39.34324], [-77.65249, 39.37495], [-77.63954, 39.40455], [-77.63955, 39.42897], [-77.63275, 39.44475], [-77.6344, 39.44764], [-77.62367, 39.44696], [-77.62206, 39.45024], [-77.62887, 39.4632], [-77.61781, 39.47003], [-77.61967, 39.48434], [-77.61339, 39.48845], [-77.61699, 39.49161], [-77.61716, 39.49794], [-77.62361, 39.4989], [-77.61541, 39.52457], [-77.60326, 39.53979], [-77.59886, 39.54076], [-77.59188, 39.55399], [-77.59851, 39.56341], [-77.59647, 39.57315], [-77.59012, 39.5732], [-77.5811, 39.5876], [-77.5767, 39.60879], [-77.56677, 39.628], [-77.5422, 39.63247], [-77.53835, 39.64346], [-77.54281, 39.65251], [-77.53365, 39.66246], [-77.53602, 39.66444], [-77.53332, 39.66478], [-77.51992, 39.68974], [-77.5219, 39.69377], [-77.52781, 39.69097], [-77.52851, 39.69586], [-77.5186, 39.70476], [-77.51589, 39.71145], [-77.51003, 39.7135], [-77.50714, 39.72083], [-77.49414, 39.72423], [-77.48968, 39.73205], [-77.48906, 39.74376], [-77.49298, 39.75517], [-77.4797, 39.77342], [-77.48267, 39.77991], [-77.48001, 39.789], [-77.48324, 39.79365], [-77.47642, 39.79972], [-77.47709, 39.8104], [-77.47201, 39.82066], [-77.48123, 39.82542], [-77.48513, 39.83477], [-77.50279, 39.8363], [-77.50669, 39.84849], [-77.5112, 39.85177], [-77.49119, 39.89251], [-77.48932, 39.90667], [-77.48328, 39.90763], [-77.48829, 39.91384], [-77.48236, 39.92717], [-77.48828, 39.9348], [-77.48321, 39.94008], [-77.49105, 39.9467], [-77.49019, 39.94885], [-77.48132, 39.95464], [-77.48223, 39.96025], [-77.46656, 39.97556], [-77.45291, 39.97756], [-77.44996, 39.97345], [-77.44396, 39.97331], [-77.42744, 39.98483], [-77.41737, 39.98508], [-77.41235, 39.99319], [-77.3948, 40.00814], [-77.38183, 40.01279], [-77.38136, 40.01835], [-77.37205, 40.02387], [-77.37032, 40.02874], [-77.35813, 40.02898], [-77.35647, 40.0371], [-77.34261, 40.04087], [-77.32494, 40.03846], [-77.31977, 40.03414], [-77.3134, 40.03565], [-77.3119, 40.03119], [-77.29859, 40.03166], [-77.29339, 40.02883], [-77.28947, 40.03185], [-77.276, 40.02703], [-77.25783, 40.03082], [-77.25493, 40.02874], [-77.22924, 40.05303], [-77.20613, 40.06679], [-77.20434, 40.07259], [-77.1929, 40.07974], [-77.1776, 40.08306], [-77.17312, 40.09231], [-77.14259, 40.09235], [-77.11289, 40.10264], [-77.11306, 40.1065], [-77.10303, 40.11522], [-77.10266, 40.1199], [-77.10605, 40.12246], [-77.10451, 40.12534], [-77.10862, 40.12555], [-77.11577, 40.13583], [-77.11504, 40.14126], [-77.11877, 40.14264], [-77.1186, 40.14652], [-77.12719, 40.15014], [-77.11906, 40.15559], [-77.1197, 40.17644], [-77.11177, 40.18167], [-77.10595, 40.19301], [-77.11443, 40.20909], [-77.10472, 40.21345], [-77.1064, 40.21857], [-77.10215, 40.22234], [-77.11049, 40.22906], [-77.10506, 40.23846], [-77.09997, 40.24038], [-77.1041, 40.25303], [-77.10178, 40.25759], [-77.10346, 40.26741], [-77.09973, 40.27057], [-77.09864, 40.28009], [-77.08803, 40.29299], [-77.08962, 40.29728], [-77.08454, 40.29939], [-77.08896, 40.30037], [-77.08926, 40.30537], [-77.08016, 40.31183], [-77.08383, 40.31846], [-77.07801, 40.32081], [-77.07665, 40.32584], [-77.08265, 40.33285], [-77.08871, 40.33237], [-77.089, 40.33731], [-77.1029, 40.34184], [-77.08383, 40.35719], [-77.04135, 40.37474], [-77.03478, 40.38156], [-77.02917, 40.38129], [-77.03146, 40.39068], [-77.01846, 40.40284], [-77.01077, 40.40219], [-77.00765, 40.39575], [-77.01597, 40.39001], [-77.0176, 40.38685], [-77.01485, 40.38561], [-76.97319, 40.40049], [-76.86421, 40.42988], [-76.78445, 40.45827], [-76.78141, 40.45871], [-76.78295, 40.45423], [-76.7774, 40.45356], [-76.77124, 40.44797], [-76.76299, 40.44687], [-76.71242, 40.45683], [-76.71018, 40.45345], [-76.66967, 40.47288], [-76.63256, 40.48637], [-76.60422, 40.50331], [-76.60059, 40.50252], [-76.59825, 40.49686], [-76.58492, 40.49373], [-76.55995, 40.50374], [-76.56012, 40.49683], [-76.55028, 40.48923], [-76.54997, 40.48072], [-76.54359, 40.48167], [-76.53978, 40.4786], [-76.53176, 40.48104], [-76.52794, 40.4786], [-76.52606, 40.48435], [-76.52074, 40.4816], [-76.50593, 40.48899], [-76.47315, 40.4971], [-76.42256, 40.49497], [-76.36566, 40.51022], [-76.34391, 40.51113], [-76.34297, 40.514], [-76.32475, 40.5185], [-76.30532, 40.51358], [-76.31114, 40.50786], [-76.30171, 40.51139], [-76.27937, 40.50845], [-76.27854, 40.51107], [-76.26302, 40.51336], [-76.23477, 40.52571], [-76.20572, 40.52969], [-76.19387, 40.52789], [-76.1837, 40.53376], [-76.16668, 40.5311], [-76.16248, 40.53798], [-76.15062, 40.53919], [-76.15106, 40.54482], [-76.14719, 40.55074], [-76.12948, 40.55588], [-76.11124, 40.55826], [-76.11009, 40.55256], [-76.10421, 40.55335], [-76.10115, 40.54613], [-76.09749, 40.54596], [-76.03501, 40.56929], [-76.026, 40.57674], [-76.02666, 40.58004], [-76.02006, 40.57417], [-76.02181, 40.57855], [-76.01134, 40.58161], [-75.98108, 40.5829], [-75.9685, 40.58889], [-75.95292, 40.58709], [-75.93774, 40.58965], [-75.92677, 40.59486], [-75.9283, 40.59754], [-75.93153, 40.59497], [-75.93699, 40.60004], [-75.9218, 40.60512], [-75.91279, 40.61278], [-75.92973, 40.61186], [-75.94487, 40.60571], [-75.96666, 40.60795], [-75.96086, 40.61457], [-75.95867, 40.62351], [-75.96128, 40.63454], [-75.95443, 40.64537], [-75.95447, 40.65186], [-75.95942, 40.65134], [-75.95518, 40.65656], [-75.92171, 40.66338], [-75.87729, 40.68328], [-75.86005, 40.68622], [-75.80876, 40.70633], [-75.77629, 40.72887], [-75.74557, 40.74025], [-75.73233, 40.75155], [-75.7105, 40.75996], [-75.70552, 40.76556], [-75.67278, 40.77686], [-75.64411, 40.78194], [-75.61809, 40.78579], [-75.61976, 40.78243], [-75.60399, 40.78201], [-75.60426, 40.7874], [-75.60063, 40.79043], [-75.57267, 40.80199], [-75.55358, 40.80599], [-75.50424, 40.80843], [-75.46348, 40.8173], [-75.44493, 40.81975], [-75.44061, 40.81769], [-75.4046, 40.82838], [-75.38946, 40.82746], [-75.37031, 40.83384], [-75.35822, 40.84308], [-75.3401, 40.84491], [-75.31508, 40.85805], [-75.2881, 40.86247], [-75.27152, 40.87481], [-75.2743, 40.88096], [-75.27176, 40.885], [-75.25165, 40.89676], [-75.24506, 40.90409], [-75.24472, 40.90889], [-75.22945, 40.9151], [-75.21902, 40.92933], [-75.1998, 40.93572], [-75.1858, 40.93664], [-75.17578, 40.94646], [-75.14884, 40.95017], [-75.12897, 40.95896], [-75.12681, 40.96285], [-75.13773, 40.96871], [-75.14199, 40.98011], [-75.14035, 40.98314], [-75.13227, 40.97107], [-75.12424, 40.97089], [-75.12675, 40.97404], [-75.0898, 40.99956], [-75.05377, 41.00916], [-75.01021, 41.02557], [-75.00531, 41.03229], [-74.99753, 41.03206], [-74.96917, 41.04972], [-74.95921, 41.06317], [-74.9454, 41.0678], [-74.91505, 41.08621], [-74.90065, 41.09929], [-74.89959, 41.11004], [-74.87073, 41.1317], [-74.8637, 41.13201], [-74.85971, 41.14059], [-74.79433, 41.17093], [-74.79064, 41.17368], [-74.79055, 41.17943], [-74.78514, 41.18171], [-74.78093, 41.17952], [-74.77033, 41.18444], [-74.75884, 41.19565], [-74.7139, 41.22162], [-74.70599, 41.23397], [-74.68922, 41.24637], [-74.6864, 41.25201], [-74.68958, 41.25251], [-74.68808, 41.25585], [-74.68104, 41.25817], [-74.67587, 41.26573], [-74.68172, 41.2692], [-74.68026, 41.27196], [-74.68443, 41.27526], [-74.67438, 41.28914], [-74.679, 41.2943], [-74.66769, 41.30678], [-74.66352, 41.31855], [-74.66029, 41.31606], [-74.6555, 41.31776], [-74.64717, 41.32764], [-74.63548, 41.32763], [-74.622, 41.31939], [-74.61667, 41.32155], [-74.56024, 41.29572], [-74.55495, 41.28726], [-74.5507, 41.28948], [-74.54145, 41.28672], [-74.53728, 41.2903], [-74.53076, 41.2853], [-74.53768, 41.27562], [-74.53078, 41.27245], [-74.5276, 41.27584], [-74.51484, 41.27063], [-74.51091, 41.26652], [-74.51263, 41.26266], [-74.50136, 41.25763], [-74.50107, 41.25169], [-74.48984, 41.24], [-74.48003, 41.23527], [-74.473, 41.23725], [-74.45992, 41.2217], [-74.4481, 41.21669], [-74.44993, 41.21151], [-74.42423, 41.21672], [-74.41445, 41.21262], [-74.41168, 41.20377], [-74.38584, 41.20164], [-74.37322, 41.19476], [-74.355, 41.19647], [-74.34676, 41.18878], [-74.3355, 41.19819], [-74.32221, 41.204], [-74.30682, 41.22608], [-74.28722, 41.24174], [-74.27772, 41.25717], [-74.27026, 41.26176], [-74.26187, 41.27752], [-74.25006, 41.26898], [-74.23761, 41.26825], [-74.22352, 41.27612], [-74.21908, 41.26809], [-74.21134, 41.27041], [-74.20524, 41.26454], [-74.19345, 41.2666], [-74.19189, 41.26284], [-74.17857, 41.2723], [-74.16593, 41.27233], [-74.14735, 41.25936], [-74.13952, 41.26148], [-74.13304, 41.25814], [-74.12616, 41.26399], [-74.12225, 41.2619], [-74.11138, 41.26604], [-74.10555, 41.26297], [-74.09532, 41.2721], [-74.09187, 41.28014], [-74.0879, 41.28099], [-74.08806, 41.2846], [-74.07867, 41.29155], [-74.07291, 41.28728], [-74.0729, 41.27882], [-74.0678, 41.27553], [-74.06062, 41.2761], [-74.05856, 41.28029], [-74.04569, 41.28642], [-74.0385, 41.28222], [-74.03212, 41.28304], [-74.03696, 41.30294], [-74.03092, 41.29818], [-74.02318, 41.30253], [-74.01724, 41.29559], [-74.01909, 41.30083], [-74.01229, 41.30436], [-74.0113, 41.3083], [-74.00491, 41.30718], [-74.01033, 41.31109], [-74.00522, 41.31582], [-74.00925, 41.31211], [-74.00358, 41.30737], [-73.99899, 41.30762], [-73.99551, 41.31295], [-73.98955, 41.31448], [-73.98851, 41.31991], [-73.95987, 41.32514], [-73.94068, 41.3412], [-73.93657, 41.35416], [-73.93146, 41.35571], [-73.9251, 41.34933], [-73.91797, 41.35252], [-73.90932, 41.36751], [-73.89214, 41.38415], [-73.87895, 41.38743], [-73.87457, 41.40497], [-73.87725, 41.40979], [-73.88181, 41.40782], [-73.88112, 41.41095], [-73.87426, 41.42023], [-73.86269, 41.41952], [-73.84753, 41.43245], [-73.84348, 41.43891], [-73.84366, 41.4461], [-73.83605, 41.45322], [-73.84044, 41.45479], [-73.82359, 41.47587], [-73.81368, 41.49872], [-73.81343, 41.50648], [-73.80851, 41.51068], [-73.80224, 41.51063], [-73.79823, 41.51687], [-73.78746, 41.51221], [-73.78268, 41.51335], [-73.7636, 41.53564], [-73.74754, 41.54363], [-73.74241, 41.54437], [-73.73549, 41.53973], [-73.72858, 41.54378], [-73.71267, 41.54433], [-73.69797, 41.56133], [-73.68788, 41.56414], [-73.6874, 41.56767], [-73.66781, 41.57887], [-73.66367, 41.58804], [-73.6579, 41.58803], [-73.65691, 41.59451], [-73.64939, 41.59476], [-73.64374, 41.60654], [-73.63958, 41.60895], [-73.6207, 41.6102], [-73.61848, 41.60757], [-73.62045, 41.60528], [-73.61125, 41.6029], [-73.59378, 41.60568], [-73.59172, 41.59276], [-73.57656, 41.59543], [-73.57655, 41.59874], [-73.56249, 41.61103], [-73.56418, 41.61617], [-73.55493, 41.62247], [-73.54624, 41.63536], [-73.53508, 41.63443], [-73.53368, 41.63731], [-73.52602, 41.63654], [-73.52572, 41.64003], [-73.51864, 41.64169], [-73.51809, 41.6504], [-73.51567, 41.6507], [-73.51853, 41.65244], [-73.51761, 41.65672], [-73.51242, 41.66173], [-73.51631, 41.66221], [-73.51178, 41.66621], [-73.50731, 41.66584], [-73.50408, 41.67084], [-73.51452, 41.6755], [-73.51191, 41.68272], [-73.51516, 41.6822], [-73.51441, 41.68522], [-73.51915, 41.68571], [-73.52329, 41.68143], [-73.52384, 41.68936], [-73.51899, 41.69519], [-73.50463, 41.69763], [-73.50124, 41.70442], [-73.50068, 41.72105], [-73.49428, 41.72467], [-73.49693, 41.7308], [-73.48441, 41.72776], [-73.47987, 41.74087], [-73.47298, 41.74394], [-73.47632, 41.74488], [-73.47629, 41.75021], [-73.46978, 41.74925], [-73.46605, 41.75504], [-73.4505, 41.75784], [-73.44341, 41.76624], [-73.41895, 41.77782], [-73.39405, 41.80619], [-73.38886, 41.81446], [-73.39173, 41.81518], [-73.39079, 41.81926], [-73.38554, 41.82238], [-73.391, 41.83913], [-73.38207, 41.84865], [-73.38261, 41.85384], [-73.39024, 41.86079], [-73.38838, 41.86373], [-73.39253, 41.8708], [-73.39093, 41.87354], [-73.38602, 41.87299], [-73.40188, 41.89237], [-73.40292, 41.89803], [-73.38686, 41.91834], [-73.37046, 41.91848], [-73.36328, 41.9258], [-73.3617, 41.94664], [-73.36932, 41.9511], [-73.3676, 41.95613], [-73.37764, 41.96729], [-73.37673, 41.97196], [-73.37419, 41.97184], [-73.37834, 41.97585], [-73.39207, 41.98273], [-73.39518, 41.97641], [-73.40088, 41.97352], [-73.40071, 41.97805], [-73.40823, 41.97998], [-73.40578, 41.9845], [-73.41036, 41.99468], [-73.41755, 41.98909], [-73.42401, 41.99404], [-73.42785, 41.99331], [-73.43833, 42.00743], [-73.44612, 42.00448], [-73.45552, 42.01747], [-73.45197, 42.02532], [-73.45671, 42.03706], [-73.45301, 42.04769], [-73.4556, 42.05271], [-73.43797, 42.05188], [-73.43731, 42.06598], [-73.43162, 42.07558], [-73.43202, 42.08256], [-73.43766, 42.09122], [-73.43073, 42.10221], [-73.43563, 42.10708], [-73.43, 42.11017], [-73.43261, 42.11799], [-73.42867, 42.12459], [-73.43818, 42.14359], [-73.43498, 42.14078], [-73.43162, 42.14461], [-73.41257, 42.14724], [-73.40546, 42.14487], [-73.37874, 42.14656], [-73.37668, 42.15343], [-73.36609, 42.15416], [-73.36149, 42.15232], [-73.36072, 42.14427], [-73.34514, 42.14503], [-73.34225, 42.14802], [-73.34403, 42.15346], [-73.33592, 42.15865], [-73.32808, 42.15192], [-73.32328, 42.15539], [-73.32453, 42.15829], [-73.32069, 42.15985], [-73.31937, 42.16674], [-73.30673, 42.16455], [-73.30379, 42.16949], [-73.2926, 42.17447], [-73.29125, 42.18789], [-73.28676, 42.18872], [-73.2828, 42.20099], [-73.27813, 42.20401], [-73.2725, 42.20259], [-73.26848, 42.20878], [-73.26112, 42.20816], [-73.2601, 42.21614], [-73.25329, 42.22241], [-73.25398, 42.22647], [-73.2474, 42.22934], [-73.24527, 42.23591], [-73.24951, 42.23875], [-73.23593, 42.24512], [-73.23493, 42.24862], [-73.23112, 42.24707], [-73.22567, 42.25232], [-73.21599, 42.25135], [-73.21017, 42.24473], [-73.20946, 42.23782], [-73.19914, 42.23291], [-73.18771, 42.23869], [-73.17606, 42.25447], [-73.18084, 42.25747], [-73.18258, 42.26716], [-73.18826, 42.27052], [-73.18157, 42.2772], [-73.18474, 42.28198], [-73.16824, 42.2821], [-73.16506, 42.2792], [-73.16359, 42.28159], [-73.17306, 42.28822], [-73.1649, 42.28505], [-73.15981, 42.28651], [-73.15735, 42.29186], [-73.15093, 42.29149], [-73.15008, 42.30038], [-73.14573, 42.30168], [-73.16064, 42.31247], [-73.16947, 42.31254], [-73.17027, 42.31577], [-73.16538, 42.31923], [-73.16831, 42.32989], [-73.16186, 42.33327], [-73.16383, 42.34487], [-73.1526, 42.35611], [-73.15339, 42.36277], [-73.14707, 42.36841], [-73.15176, 42.3767], [-73.14899, 42.37944], [-73.15657, 42.39104], [-73.15001, 42.39906], [-73.14977, 42.4094], [-73.15465, 42.41359], [-73.15222, 42.41745], [-73.15444, 42.42552], [-73.15809, 42.42747], [-73.15823, 42.43871], [-73.16626, 42.45002], [-73.16155, 42.45687], [-73.16461, 42.45986], [-73.15941, 42.46184], [-73.16844, 42.46456], [-73.15952, 42.46866], [-73.15632, 42.47379], [-73.18062, 42.48382], [-73.16494, 42.5117], [-73.1551, 42.52257], [-73.15592, 42.52885], [-73.14729, 42.53627], [-73.14712, 42.54958], [-73.14928, 42.55362], [-73.15459, 42.55489], [-73.15461, 42.56165], [-73.15707, 42.56203], [-73.15436, 42.56475], [-73.1591, 42.5672], [-73.16082, 42.57463], [-73.17768, 42.57812], [-73.17244, 42.58739], [-73.17918, 42.60183], [-73.19178, 42.61429], [-73.17841, 42.63082], [-73.16843, 42.63528], [-73.15977, 42.64583], [-73.15767, 42.66836], [-73.17175, 42.66974], [-73.1739, 42.67256], [-73.1693, 42.68063], [-73.16496, 42.6806], [-73.15998, 42.68566], [-73.15569, 42.7002], [-73.15235, 42.70122], [-73.14871, 42.70926], [-73.15046, 42.71879], [-73.16103, 42.72725], [-73.15927, 42.73495], [-73.15323, 42.74645], [-73.14258, 42.74881], [-73.13682, 42.75919], [-73.13777, 42.76769], [-73.1331, 42.77501], [-73.12614, 42.77753], [-73.12421, 42.78541], [-73.11755, 42.79207], [-73.11623, 42.80604], [-73.12254, 42.81522], [-73.12507, 42.83119], [-73.11812, 42.83897], [-73.11023, 42.84135], [-73.10918, 42.84694], [-73.12794, 42.85443], [-73.13284, 42.8707], [-73.12086, 42.88593], [-73.1048, 42.88455], [-73.09705, 42.88732], [-73.09206, 42.89325], [-73.0919, 42.9029], [-73.07179, 42.92411], [-73.07242, 42.92969], [-73.05893, 42.93824], [-73.06429, 42.94278], [-73.0612, 42.95804], [-73.05613, 42.96601], [-73.05994, 42.97297], [-73.07223, 42.97425], [-73.06782, 42.98728], [-73.06932, 42.99575], [-73.06207, 43.00451], [-73.04736, 43.00774], [-73.03823, 43.02161], [-73.03541, 43.02143], [-73.03819, 43.02976], [-73.04286, 43.03293], [-73.03823, 43.03529], [-73.0258, 43.03355], [-73.0242, 43.04108], [-73.01952, 43.04095], [-73.00786, 43.05458], [-72.9734, 43.05268], [-72.96922, 43.06127], [-72.95411, 43.06418], [-72.92574, 43.08205], [-72.9256, 43.08793], [-72.93449, 43.09079], [-72.94216, 43.09841], [-72.9624, 43.10217], [-72.96594, 43.11825], [-72.97811, 43.12424], [-72.97122, 43.13407], [-72.97874, 43.13904], [-72.98139, 43.14477], [-72.99176, 43.15057], [-73.00836, 43.15402], [-72.99787, 43.16983], [-72.99076, 43.18912], [-72.97927, 43.2008], [-72.97346, 43.20089], [-72.965, 43.21624], [-72.95099, 43.22059], [-72.9506, 43.22484], [-72.93978, 43.22791], [-72.93681, 43.23358], [-72.93798, 43.24654], [-72.93533, 43.25262], [-72.94324, 43.26873], [-72.93682, 43.27801], [-72.93921, 43.29135], [-72.93641, 43.29659], [-72.9453, 43.29618], [-72.94983, 43.3011], [-72.95794, 43.30216], [-72.95844, 43.30881], [-72.95249, 43.31639], [-72.95602, 43.3214], [-72.96527, 43.32341], [-72.95905, 43.32884], [-72.96037, 43.33389], [-72.95281, 43.3455], [-72.94914, 43.36013], [-72.94199, 43.36227], [-72.95909, 43.36724], [-72.96253, 43.3728], [-72.95546, 43.38947], [-72.95466, 43.40293], [-72.93756, 43.41279], [-72.93934, 43.41775], [-72.9469, 43.41954], [-72.94204, 43.43311], [-72.94541, 43.43558], [-72.94253, 43.44299], [-72.93353, 43.44223], [-72.93811, 43.45083], [-72.93248, 43.4571], [-72.93892, 43.47131], [-72.93646, 43.47701], [-72.93305, 43.47655], [-72.92598, 43.48321], [-72.92402, 43.49017], [-72.92446, 43.4995], [-72.92728, 43.50215], [-72.92543, 43.52091], [-72.92224, 43.52627], [-72.90563, 43.52492], [-72.89355, 43.52819], [-72.88981, 43.5325], [-72.87543, 43.53267], [-72.87224, 43.53776], [-72.85907, 43.54072], [-72.8558, 43.54408], [-72.85708, 43.54976], [-72.85166, 43.56325], [-72.84015, 43.56871], [-72.83415, 43.57799], [-72.81728, 43.58933], [-72.82371, 43.59374], [-72.82106, 43.59736], [-72.82413, 43.60691], [-72.82043, 43.61279], [-72.82124, 43.6207], [-72.82613, 43.62384], [-72.83049, 43.63404], [-72.84396, 43.63788], [-72.85568, 43.64863], [-72.84905, 43.67204], [-72.83514, 43.67552], [-72.82769, 43.66881], [-72.82236, 43.66828], [-72.81389, 43.67524], [-72.80051, 43.67225], [-72.78943, 43.67378], [-72.78615, 43.67467], [-72.78771, 43.67923], [-72.7855, 43.68068], [-72.77459, 43.68012], [-72.76934, 43.68879], [-72.75702, 43.69438], [-72.74935, 43.69005], [-72.73471, 43.69355], [-72.71735, 43.69244], [-72.71353, 43.68898], [-72.69505, 43.68572], [-72.68451, 43.69299], [-72.67533, 43.69067], [-72.66334, 43.68201], [-72.6398, 43.67772], [-72.63947, 43.67128], [-72.63538, 43.66779], [-72.63769, 43.66415], [-72.63027, 43.6583], [-72.59793, 43.65999], [-72.58228, 43.65346], [-72.57469, 43.65687], [-72.56515, 43.65475], [-72.56156, 43.65817], [-72.56197, 43.66774], [-72.55385, 43.66723], [-72.55416, 43.67201], [-72.55007, 43.67596], [-72.54032, 43.67568], [-72.53632, 43.68503], [-72.51874, 43.67731], [-72.50812, 43.68795], [-72.48453, 43.68723], [-72.47832, 43.69167], [-72.47846, 43.69643], [-72.46392, 43.70585], [-72.45579, 43.70455], [-72.44995, 43.70889], [-72.43953, 43.70004], [-72.43202, 43.71108], [-72.41736, 43.71225], [-72.41834, 43.71728], [-72.4133, 43.72095], [-72.39717, 43.7177], [-72.38039, 43.72808], [-72.36508, 43.72561], [-72.35901, 43.71752], [-72.33732, 43.71208], [-72.33379, 43.70696], [-72.32965, 43.70676], [-72.32442, 43.71182], [-72.31769, 43.70892], [-72.30827, 43.71315], [-72.30515, 43.70503], [-72.2895, 43.70253], [-72.28047, 43.69693], [-72.26456, 43.70021], [-72.2585, 43.70485], [-72.25288, 43.70467], [-72.25376, 43.70129], [-72.25003, 43.70048], [-72.22684, 43.70325], [-72.21797, 43.7079], [-72.20492, 43.70309], [-72.19851, 43.7087], [-72.17547, 43.71817], [-72.14866, 43.71725], [-72.1453, 43.72021], [-72.15107, 43.72773], [-72.13927, 43.73518], [-72.13253, 43.75311], [-72.1261, 43.75062], [-72.12217, 43.76395], [-72.10566, 43.77516], [-72.10821, 43.78365], [-72.10312, 43.79266], [-72.07155, 43.79676], [-72.06189, 43.81011], [-72.06134, 43.81981], [-72.04368, 43.82725], [-72.03528, 43.82477], [-72.03143, 43.82683], [-72.02954, 43.84904], [-72.04123, 43.86113], [-72.03594, 43.86891], [-72.03068, 43.8673], [-72.02752, 43.87184], [-72.03403, 43.87737], [-72.02285, 43.88678], [-72.01541, 43.88532], [-72.01582, 43.88868], [-72.00114, 43.88527], [-71.98883, 43.89847], [-71.97944, 43.90252], [-71.97237, 43.91461], [-71.96123, 43.91791], [-71.95585, 43.92519], [-71.95433, 43.93734], [-71.95009, 43.9389], [-71.94892, 43.94883], [-71.93864, 43.96688], [-71.92706, 43.97954], [-71.92799, 43.9834], [-71.90729, 43.98803], [-71.90202, 43.98393], [-71.89935, 43.9905], [-71.89115, 43.99065], [-71.88728, 43.99752], [-71.85909, 44.0003], [-71.84983, 44.00571], [-71.84794, 44.01155], [-71.84014, 44.01299], [-71.82836, 44.02998], [-71.82351, 44.03223], [-71.82143, 44.02922], [-71.81189, 44.02763], [-71.80831, 44.03514], [-71.76976, 44.05088], [-71.76885, 44.05995], [-71.7605, 44.06698], [-71.75795, 44.07512], [-71.75073, 44.0761], [-71.75389, 44.08532], [-71.75216, 44.09176], [-71.75648, 44.0929], [-71.75335, 44.09804], [-71.74094, 44.10156], [-71.74035, 44.11239], [-71.74456, 44.11407], [-71.74085, 44.12169], [-71.73609, 44.1242], [-71.73435, 44.13821], [-71.71861, 44.14076], [-71.7022, 44.13825], [-71.70691, 44.13397], [-71.70555, 44.13107], [-71.69621, 44.12625], [-71.68138, 44.10977], [-71.67788, 44.1141], [-71.66266, 44.11106], [-71.64757, 44.11683], [-71.64286, 44.11896], [-71.64859, 44.12908], [-71.64349, 44.14414], [-71.6453, 44.16665], [-71.6423, 44.1724], [-71.61981, 44.18693], [-71.59951, 44.18954], [-71.59047, 44.19403], [-71.57568, 44.18928], [-71.55479, 44.18766], [-71.54864, 44.17863], [-71.53426, 44.16821], [-71.52154, 44.17899], [-71.51663, 44.17814], [-71.50734, 44.1844], [-71.496, 44.18379], [-71.49767, 44.19032], [-71.49292, 44.19613], [-71.48279, 44.18608], [-71.47704, 44.174], [-71.46938, 44.16984], [-71.43144, 44.17672], [-71.41898, 44.17342], [-71.40892, 44.17529], [-71.39418, 44.16555], [-71.38606, 44.16671], [-71.38813, 44.17093], [-71.37314, 44.17701], [-71.38353, 44.17929], [-71.38971, 44.19552], [-71.37586, 44.20115], [-71.37626, 44.21705], [-71.36972, 44.21941], [-71.3702, 44.22257], [-71.36478, 44.2278], [-71.35532, 44.2317], [-71.33572, 44.24847], [-71.32581, 44.25361], [-71.32017, 44.25324], [-71.31911, 44.25864], [-71.30901, 44.26445], [-71.30468, 44.27464], [-71.31426, 44.27926], [-71.31788, 44.28622], [-71.31665, 44.2981], [-71.31165, 44.30483], [-71.31334, 44.30886], [-71.30533, 44.31658], [-71.28375, 44.32804], [-71.27206, 44.32942], [-71.26624, 44.32588], [-71.25514, 44.3091], [-71.26315, 44.30447], [-71.25572, 44.29552], [-71.25595, 44.28733], [-71.25213, 44.28342], [-71.25505, 44.26453], [-71.25023, 44.2504], [-71.25144, 44.24576], [-71.20503, 44.2517], [-71.20202, 44.25423], [-71.20124, 44.26278], [-71.19178, 44.26066], [-71.17735, 44.26845], [-71.17032, 44.27593], [-71.17625, 44.2897], [-71.17299, 44.29922], [-71.16777, 44.30313], [-71.16768, 44.31077], [-71.15282, 44.32155], [-71.14782, 44.33042], [-71.13103, 44.33489], [-71.13134, 44.34055], [-71.12311, 44.34727], [-71.11605, 44.34865], [-71.11288, 44.35401], [-71.11295, 44.36829], [-71.10435, 44.3833], [-71.10935, 44.40115], [-71.11202, 44.40008], [-71.11674, 44.40656], [-71.12665, 44.40329], [-71.13923, 44.40512], [-71.14652, 44.41045], [-71.14746, 44.41563], [-71.15749, 44.41773], [-71.15392, 44.42676], [-71.15756, 44.43111], [-71.15608, 44.43423], [-71.15081, 44.4338], [-71.14877, 44.43748], [-71.13627, 44.44083], [-71.09452, 44.44391], [-71.08787, 44.45183], [-71.08148, 44.45153], [-71.07372, 44.45617], [-71.06692, 44.45376], [-71.06096, 44.46163], [-71.041, 44.4686], [-71.03961, 44.47832], [-71.03519, 44.48142], [-71.01034, 44.48766], [-70.99772, 44.50268], [-70.98939, 44.50342], [-70.98878, 44.5149], [-70.98354, 44.51829], [-70.98006, 44.53047], [-70.98324, 44.53555], [-70.9903, 44.53767], [-70.97738, 44.54569], [-70.97858, 44.55849], [-70.97196, 44.55944], [-70.97238, 44.56545], [-70.95801, 44.57193], [-70.9649, 44.58325], [-70.96185, 44.59095], [-70.95817, 44.59223], [-70.9588, 44.58866], [-70.95115, 44.58823], [-70.92566, 44.60102], [-70.90351, 44.60057], [-70.89766, 44.60831], [-70.89189, 44.60928], [-70.89412, 44.62128], [-70.90126, 44.62716], [-70.90255, 44.63388], [-70.88656, 44.63949], [-70.89387, 44.64518], [-70.8938, 44.65059], [-70.90044, 44.65723], [-70.89725, 44.65986], [-70.89904, 44.66123], [-70.89444, 44.66212], [-70.89357, 44.66754], [-70.87719, 44.6733], [-70.83803, 44.67432], [-70.83596, 44.69358], [-70.82155, 44.70238], [-70.81299, 44.71615], [-70.80363, 44.71209], [-70.79559, 44.71343], [-70.77975, 44.72754], [-70.77372, 44.74115], [-70.76553, 44.74427], [-70.76895, 44.75569], [-70.76686, 44.77366], [-70.77152, 44.78697], [-70.76857, 44.79765], [-70.75964, 44.8052], [-70.75962, 44.80934], [-70.74922, 44.81601], [-70.7481, 44.82567], [-70.73377, 44.82878], [-70.72867, 44.83604], [-70.70999, 44.83441], [-70.71005, 44.83697], [-70.69735, 44.84469], [-70.67758, 44.85005], [-70.66734, 44.85054], [-70.66174, 44.84599], [-70.66436, 44.84146], [-70.66182, 44.84034], [-70.64393, 44.84538], [-70.62705, 44.8428], [-70.61608, 44.84443], [-70.60704, 44.85003], [-70.59134, 44.85034], [-70.58776, 44.85263], [-70.58789, 44.85808], [-70.5795, 44.85785], [-70.55928, 44.8667], [-70.56019, 44.87529], [-70.53542, 44.88938], [-70.53555, 44.90315], [-70.52272, 44.90638], [-70.52674, 44.91594], [-70.52312, 44.91723], [-70.52412, 44.92128], [-70.51394, 44.92689], [-70.48716, 44.95162], [-70.47228, 44.95139], [-70.44832, 44.96106], [-70.44784, 44.96719], [-70.44205, 44.97218], [-70.42998, 44.97217], [-70.41957, 44.97744], [-70.40811, 44.97331], [-70.39635, 44.97884], [-70.37617, 44.9746], [-70.37195, 44.97687], [-70.36688, 44.97246], [-70.36268, 44.97319], [-70.34238, 44.99097], [-70.34176, 45.00145], [-70.33213, 45.00571], [-70.32069, 45.02694], [-70.32631, 45.02907], [-70.32739, 45.03303], [-70.34142, 45.03454], [-70.3427, 45.03928], [-70.35194, 45.04198], [-70.36038, 45.04081], [-70.36254, 45.03734], [-70.37575, 45.03648], [-70.3845, 45.0506], [-70.37829, 45.06106], [-70.37301, 45.06367], [-70.37745, 45.07803], [-70.36227, 45.0885], [-70.35929, 45.10173], [-70.34938, 45.11199], [-70.34878, 45.12815], [-70.35462, 45.13865], [-70.35112, 45.14213], [-70.32638, 45.14579], [-70.31312, 45.14222], [-70.29512, 45.14701], [-70.25524, 45.14871], [-70.2574, 45.14557], [-70.25323, 45.14353], [-70.2313, 45.14482], [-70.22609, 45.1379], [-70.21055, 45.1299], [-70.20036, 45.1324], [-70.19236, 45.13871], [-70.187, 45.134], [-70.16822, 45.1342], [-70.16618, 45.14299], [-70.17049, 45.14558], [-70.17272, 45.15282], [-70.17037, 45.15097], [-70.14602, 45.15621], [-70.13696, 45.16127], [-70.11595, 45.15609], [-70.10881, 45.15958], [-70.09814, 45.15844], [-70.09566, 45.16017], [-70.09697, 45.1663], [-70.08027, 45.16865], [-70.0757, 45.17741], [-70.05796, 45.1846], [-70.05358, 45.1937], [-70.07283, 45.20286], [-70.07301, 45.20648], [-70.06888, 45.20773], [-70.06951, 45.21242], [-70.08115, 45.21709], [-70.08288, 45.22095], [-70.07369, 45.23164], [-70.05465, 45.24001], [-70.02752, 45.24192], [-70.00416, 45.23421], [-69.99047, 45.24226], [-69.97608, 45.26101], [-69.94305, 45.27498], [-69.91408, 45.27147], [-69.90166, 45.27379], [-69.89438, 45.27168], [-69.89101, 45.26469], [-69.87109, 45.26187], [-69.84422, 45.25001], [-69.83149, 45.25309], [-69.82706, 45.24734], [-69.81983, 45.24639], [-69.81518, 45.24991], [-69.80935, 45.24842], [-69.80125, 45.25911], [-69.78592, 45.26577], [-69.76945, 45.26271], [-69.7637, 45.2714], [-69.74851, 45.2694], [-69.73411, 45.2757], [-69.73374, 45.28147], [-69.72953, 45.28311], [-69.71712, 45.27653], [-69.69224, 45.27701], [-69.67279, 45.27099], [-69.66434, 45.27184], [-69.66142, 45.27591], [-69.64383, 45.27561], [-69.64404, 45.27824], [-69.63997, 45.27814], [-69.64104, 45.28184], [-69.63403, 45.28443], [-69.62787, 45.28116], [-69.62365, 45.28828], [-69.61174, 45.28812], [-69.59695, 45.28336], [-69.58861, 45.2864], [-69.57385, 45.28146], [-69.53776, 45.29069], [-69.54662, 45.31502], [-69.53597, 45.33118], [-69.52434, 45.34073], [-69.50809, 45.34161], [-69.50106, 45.35056], [-69.49344, 45.353], [-69.4839, 45.3514], [-69.47439, 45.35623], [-69.47245, 45.36284], [-69.46433, 45.36424], [-69.47165, 45.37358], [-69.468, 45.37586], [-69.47312, 45.37975], [-69.46227, 45.38161], [-69.46837, 45.38565], [-69.46372, 45.38867], [-69.47082, 45.39864], [-69.43691, 45.39993], [-69.43801, 45.41574], [-69.43099, 45.42037], [-69.41934, 45.41695], [-69.41183, 45.42179], [-69.40813, 45.41469], [-69.3968, 45.41329], [-69.39448, 45.41612], [-69.38431, 45.4172], [-69.36732, 45.41578], [-69.33056, 45.4308], [-69.31707, 45.43253], [-69.29883, 45.44557], [-69.29543, 45.4436], [-69.28439, 45.44967], [-69.26272, 45.45117], [-69.26174, 45.45506], [-69.25414, 45.45658], [-69.25507, 45.45981], [-69.26478, 45.46059], [-69.2651, 45.46483], [-69.2688, 45.46653], [-69.29404, 45.46901], [-69.29438, 45.47399], [-69.28705, 45.48026], [-69.29836, 45.47975], [-69.30454, 45.48457], [-69.30349, 45.49064], [-69.31359, 45.49775], [-69.32138, 45.50901], [-69.32208, 45.51825], [-69.3145, 45.53068], [-69.32203, 45.53757], [-69.31754, 45.54316], [-69.29821, 45.54415], [-69.258, 45.55843], [-69.24478, 45.55404], [-69.23068, 45.56042], [-69.23487, 45.56111], [-69.22818, 45.56524], [-69.22309, 45.57702], [-69.22519, 45.57865], [-69.20711, 45.58841], [-69.19936, 45.59636], [-69.19351, 45.59663], [-69.18306, 45.60646], [-69.17361, 45.6078], [-69.15812, 45.61714], [-69.14931, 45.61473], [-69.14289, 45.61819], [-69.12496, 45.61623], [-69.12226, 45.62319], [-69.11658, 45.62251], [-69.11351, 45.62678], [-69.105, 45.62828], [-69.08345, 45.64433], [-69.07192, 45.64422], [-69.05873, 45.65005], [-69.04931, 45.6488], [-69.04799, 45.65321], [-69.02029, 45.64973], [-68.99253, 45.65997], [-68.99034, 45.66479], [-68.99324, 45.67278], [-69.0207, 45.68398], [-69.01941, 45.68659], [-69.00813, 45.68796], [-69.00607, 45.70095], [-69.01184, 45.71385], [-69.02897, 45.71983], [-69.02797, 45.73091], [-69.03952, 45.73522], [-69.04639, 45.73326], [-69.06566, 45.73614], [-69.085, 45.72959], [-69.10526, 45.73718], [-69.11889, 45.73558], [-69.12892, 45.74286], [-69.14093, 45.74495], [-69.15059, 45.75339], [-69.16523, 45.75579], [-69.16486, 45.76002], [-69.17868, 45.76424], [-69.17836, 45.77037], [-69.1859, 45.77238], [-69.18127, 45.77964], [-69.16618, 45.77861], [-69.16287, 45.78262], [-69.16224, 45.79567], [-69.17061, 45.79922], [-69.17213, 45.805], [-69.16564, 45.81746], [-69.1617, 45.81929], [-69.14927, 45.81856], [-69.1326, 45.82397], [-69.12249, 45.82348], [-69.10274, 45.81878], [-69.08629, 45.80691], [-69.07095, 45.80527], [-69.06278, 45.816], [-69.05443, 45.81464], [-69.04374, 45.81849], [-69.01468, 45.81713], [-68.97902, 45.82644], [-68.97176, 45.83525], [-68.95918, 45.83501], [-68.96338, 45.83928], [-68.97326, 45.83802], [-68.98172, 45.84194], [-68.98722, 45.84009], [-69.02061, 45.84786], [-69.02061, 45.85344], [-69.03332, 45.85744], [-69.03188, 45.86067], [-69.03833, 45.87279], [-69.03033, 45.88328], [-69.00261, 45.88057], [-68.99885, 45.88837], [-68.98685, 45.89562], [-68.97089, 45.89488], [-68.94695, 45.90001], [-68.93187, 45.89856], [-68.9215, 45.90445]]}}]}